FLOCK 4Y-15             
1 55068U 23001BM  23024.82176116  .00009777  00000+0  54631-3 0  9994
2 55068  97.4985  86.5992 0016673 141.2896 218.9533 15.13589952  3362
FLOCK 4Y-9              
1 55069U 23001BN  23025.61524059  .00008052  00000+0  45095-3 0  9995
2 55069  97.5016  87.3950 0015821 146.1429 214.0816 15.13578734  3482
FLOCK 4Y-26             
1 55070U 23001BP  23024.68954045  .00009513  00000+0  53182-3 0  9994
2 55070  97.4980  86.4687 0016394 139.8705 220.3740 15.13583985  3347
FLOCK 4Y-8              
1 55071U 23001BQ  23024.75614342  .00009676  00000+0  54129-3 0  9998
2 55071  97.4995  86.5360 0016529 143.4596 216.7767 15.13553073  3356
2023-001BR              
1 55072U 23001BR  23025.15244536  .00012095  00000+0  67367-3 0  9995
2 55072  97.5040  86.9441 0016407 142.0982 218.1408 15.13650350  3413
TAUSAT-2                
1 55073U 23001BS  23025.61257621  .00010466  00000+0  57194-3 0  9993
2 55073  97.5012  87.3927 0018310 122.4318 237.8687 15.14337793  3485
FLOCK 4Y-2              
1 55074U 23001BT  23025.15130253  .00010115  00000+0  56358-3 0  9996
2 55074  97.5024  86.9428 0016283 146.5486 213.6777 15.13688794  3414
FLOCK 4Y-36             
1 55075U 23001BU  23024.82097007  .00010153  00000+0  56612-3 0  9994
2 55075  97.5004  86.6054 0016508 145.5963 214.6341 15.13654762  3364
YAM-5                   
1 55076U 23001BV  23025.61984681  .00004795  00000+0  27324-3 0  9999
2 55076  97.5006  87.3801 0015874 140.9405 219.2976 15.13169976  3486
FLOCK 4Y-21             
1 55077U 23001BW  23024.75459840  .00009781  00000+0  54527-3 0  9993
2 55077  97.5031  86.5528 0016625 145.9252 214.3051 15.13670583  3359
FLOCK 4Y-31             
1 55078U 23001BX  23025.15112173  .00009763  00000+0  54415-3 0  9990
2 55078  97.4987  86.9285 0016836 139.1130 221.1368 15.13677323  3410
FLOCK 4Y-13             
1 55079U 23001BY  23025.15125665  .00009467  00000+0  52808-3 0  9996
2 55079  97.5020  86.9397 0016918 143.8317 216.4062 15.13656500  3416
FLOCK 4Y-23             
1 55080U 23001BZ  23024.75415386  .00009620  00000+0  53596-3 0  9991
2 55080  97.4996  86.5403 0017109 142.8348 217.4071 15.13693080  3357
2023-001CA              
1 55081U 23001CA  23025.15135763  .00008356  00000+0  46686-3 0  9992
2 55081  97.5033  86.9433 0017170 141.0469 219.2003 15.13630802  3416
FLOCK 4Y-34             
1 55082U 23001CB  23024.75416543  .00009712  00000+0  54096-3 0  9997
2 55082  97.5005  86.5437 0016969 141.4773 218.7673 15.13700611  3359
FLOCK 4Y-27             
1 55083U 23001CC  23025.15073690  .00009838  00000+0  54778-3 0  9991
2 55083  97.4996  86.9314 0017176 141.6690 218.5766 15.13706555  3418
2023-001CD              
1 55084U 23001CD  23025.21616141  .00008043  00000+0  44816-3 0  9992
2 55084  97.4980  86.9941 0016845 134.7427 225.5178 15.13745710  3423
2023-001CE              
1 55085U 23001CE  23025.21483098  .00011475  00000+0  63389-3 0  9995
2 55085  97.4987  86.9974 0017070 137.6427 222.6126 15.13949268  3425
2023-001CF              
1 55086U 23001CF  23025.14846689  .00013865  00000+0  76446-3 0  9990
2 55086  97.5018  86.9422 0017109 137.4213 222.8349 15.13970316  3410
SPACEBEE-167            
1 55087U 23001CG  23025.21378346  .00013910  00000+0  76457-3 0  9992
2 55087  97.4997  87.0022 0016969 136.6858 223.5711 15.14080077  3422
2023-001CH              
1 55088U 23001CH  23025.21394170  .00012096  00000+0  66637-3 0  9999
2 55088  97.5058  87.0188 0017268 137.8599 222.3964 15.14030716  3425
SPACEBEE-163            
1 55089U 23001CJ  23025.21297782  .00013922  00000+0  76384-3 0  9990
2 55089  97.4993  87.0029 0016858 136.7049 223.5511 15.14146903  3426
2023-001CK              
1 55090U 23001CK  23025.21391743  .00010117  00000+0  55886-3 0  9991
2 55090  97.5019  87.0090 0017699 139.5015 220.7538 15.13972826  3422
SPACEBEE-164            
1 55091U 23001CL  23025.21238460  .00014492  00000+0  79366-3 0  9997
2 55091  97.4994  87.0033 0017357 136.2789 223.9820 15.14194505  3424
SPACEBEE-166            
1 55092U 23001CM  23024.81455176  .00017757  00000+0  96726-3 0  9994
2 55092  97.4998  86.6144 0019154 139.0494 221.2180 15.14312481  3366
2023-001CN              
1 55093U 23001CN  23025.54386472  .00004439  00000+0  24769-3 0  9999
2 55093  97.4996  87.3275 0017641 133.7833 226.4861 15.13934189  3474
SPACEBEE-165            
1 55094U 23001CP  23024.81493776  .00019035  00000+0  10390-2 0  9997
2 55094  97.4994  86.6124 0016282 136.6156 223.6360 15.14269770  3367
SPACEBEE-162            
1 55095U 23001CQ  23024.81495950  .00017105  00000+0  93425-3 0  9991
2 55095  97.4994  86.6137 0017532 137.1180 223.1423 15.14250636  3360
SPACEBEE-161            
1 55096U 23001CR  23024.81477749  .00017179  00000+0  93785-3 0  9998
2 55096  97.4994  86.6139 0017552 136.9318 223.3290 15.14266166  3364
SPACEBEE-160            
1 55097U 23001CS  23024.81449888  .00017683  00000+0  96442-3 0  9995
2 55097  97.4995  86.6142 0017686 137.0034 223.2584 15.14293724  3360
BDSAT-2                 
1 55098U 23001CT  23025.14607167  .00012630  00000+0  69379-3 0  9995
2 55098  97.5049  86.9539 0017929 136.0147 224.2515 15.14112957  3418
SPACEBEE-156            
1 55099U 23001CU  23024.81440819  .00017560  00000+0  95759-3 0  9996
2 55099  97.4995  86.6143 0017654 137.0368 223.2246 15.14299124  3363
SPACEBEE-158            
1 55100U 23001CV  23024.81438639  .00012885  00000+0  70406-3 0  9993
2 55100  97.4992  86.6135 0018052 137.4873 222.7760 15.14292567  3361
SPACEBEE-159            
1 55101U 23001CW  23024.81331532  .00020215  00000+0  10966-2 0  9998
2 55101  97.4995  86.6153 0018677 136.5748 223.6958 15.14440484  3361
SPACEBEE-157            
1 55102U 23001CX  23024.81368510  .00019838  00000+0  10783-2 0  9991
2 55102  97.4991  86.6148 0017042 139.7567 220.4930 15.14399055  3363
2023-001CY              
1 55103U 23001CY  23025.14639138  .00006437  00000+0  35710-3 0  9995
2 55103  97.5028  86.9475 0018268 134.6023 225.6703 15.13961460  3419
2023-001CZ              
1 55104U 23001CY  23025.69634140  .00006692  00000+0  39356-3 0  9997
2 55104  97.5012  87.4348 0012879 152.8654 207.3252 15.11919390  3499
2023-001DA              
1 55105U 23001CZ  23025.48361373  .00011994  00000+0  62561-3 0  9995
2 55105  97.5064  87.2542 0013898 129.8049 230.4409 15.16019936  3465
2023-001DB              
1 55106U 23001DA  23025.68912748  .00170308  00000+0  90999-2 0  9996
2 55106  97.5124  87.4593 0014983 143.3257 216.9004 15.14208045  3480
MARIO                   
1 55123U 98067UQ  23025.06611368  .00097344  00000+0  14316-2 0  9992
2 55123  51.6417 317.0017 0000366  55.9524 304.1501 15.54662492  4200
NUTSAT                  
1 55124U 98067UR  23025.05816532  .00138262  00000+0  19203-2 0  9997
2 55124  51.6410 316.9482 0001224 174.0028 186.0978 15.56038247  4194
LORIS                   
1 55125U 98067US  23025.07157974  .00079474  00000+0  12055-2 0  9995
2 55125  51.6415 317.0378 0001424 355.4850   4.6127 15.53906371  4219
ORCASAT                 
1 55126U 98067UT  23025.07468248  .00070212  00000+0  10823-2 0  9997
2 55126  51.6423 317.0579 0001750 351.8952   8.2010 15.53516275  4218
DANTESAT                
1 55127U 98067UU  23025.17132951  .00888980  00000+0  35487-2 0  9990
2 55127  51.6337 313.9426 0013989 180.7068 179.3918 15.83671548  4229
TJREVERB                
1 55128U 98067UV  23025.20519674  .00069089  00000+0  10626-2 0  9995
2 55128  51.6416 316.4291 0002527 316.4904  43.5887 15.53583937  4227
SPORT                   
1 55129U 98067UW  23025.34478386  .00039461  00000+0  64431-3 0  9990
2 55129  51.6412 315.8602 0001553 302.9242  57.1599 15.52170855  4249
PETITSAT                
1 55130U 98067UX  23025.39936026  .00106447  00000+0  15794-2 0  9993
2 55130  51.6417 315.4769 0001950 232.3105 127.7709 15.54376379  4205
SHIJIAN-23 (SJ-23)      
1 55131U 23002A   23025.78193365 -.00000315  00000+0  00000+0 0  9994
2 55131   0.5233  95.2129 0015174 232.3202 209.2977  0.99400838   276
CZ-7A R/B               
1 55132U 23002B   23025.46473201  .00134610 -39889-6  24718-2 0  9995
2 55132  16.5057  91.8389 7169686 192.1292 130.6046  2.47296135   402
2023-003A               
1 55133U 23003A   23025.62147736  .00026064  00000+0  12867-2 0  9996
2 55133  97.2702 115.0707 0007119 198.9654 267.0563 15.17839150  2480
2023-003B               
1 55134U 23003B   23025.44864877  .00012229  00000+0  54855-3 0  9991
2 55134  97.2707 114.9776 0012418 230.2650 191.2382 15.21275697  2453
2023-003C               
1 55135U 23003C   23025.38149155  .00010190  00000+0  45570-3 0  9999
2 55135  97.2740 114.9244 0012227 234.9947 189.4915 15.21428390  2461
2023-003D               
1 55136U 23003D   23025.37957973  .00016901  00000+0  74690-3 0  9995
2 55136  97.2707 114.9208 0011905 237.9209 186.6333 15.21717426  2454
2023-003E               
1 55137U 23003E   23025.38032647  .00010298  00000+0  45872-3 0  9992
2 55137  97.2679 114.9143 0012429 236.9596 188.5803 15.21558030  2458
ONEWEB-0532             
1 55140U 23004A   23025.41049177  .00004258  00000+0  42657-3 0  9994
2 55140  86.5110 279.0524 0012480 158.3174 201.8585 14.91092408  2415
ONEWEB-0533             
1 55141U 23004B   23024.46955330  .00005425  00000+0  54213-3 0  9994
2 55141  86.5108 279.4645 0012709 161.9775 198.1905 14.91238113  2275
ONEWEB-0541             
1 55142U 23004C   23024.91667824 -.00671266  00000+0 -82215-1 0  9998
2 55142  86.5573 279.2917 0011010 155.4533  28.2845 14.85656975  2332
ONEWEB-0543             
1 55143U 23004D   23024.20549536 -.00156790  00000+0 -16536-1 0  9993
2 55143  86.5132 279.5931 0010877 122.9953 237.2320 14.90251291  2235
ONEWEB-0544             
1 55144U 23004E   23024.80017998  .00005444  00000+0  53699-3 0  9992
2 55144  86.5103 279.3160 0014345 167.9499 192.2075 14.91743691  2322
